TDRS 13                 
1 42915U 17047A   26191.56466424 -.00000092  00000+0  00000+0 0  9996
2 42915   3.4578   3.2860 0014784 111.1144   5.9600  1.00271540 32584
QZS-3 (MICHIBIKI-3)     
1 42917U 17048A   26191.59200656 -.00000338  00000+0  00000+0 0  9998
2 42917   0.0731 218.4909 0002520 265.4991 144.6531  1.00274471 32492
AMAZONAS 5              
1 42934U 17053A   26190.55680899 -.00000270  00000+0  00000+0 0  9994
2 42934   0.0333 322.5996 0001166 111.8422 352.5077  1.00271348 32260
ASIASAT 9               
1 42942U 17057A   26191.73361991 -.00000351  00000+0  00000+0 0  9997
2 42942   0.0164  37.0365 0002432  60.4497 217.3698  1.00272077 32095
INTELSAT 37E (IS-37E)   
1 42950U 17059A   26191.42076866 -.00000131  00000+0  00000+0 0  9994
2 42950   0.0177  47.3723 0002523  69.5596 304.8910  1.00270770 32290
BSAT-4A                 
1 42951U 17059B   26191.58862655 -.00000340  00000+0  00000+0 0  9993
2 42951   0.0332   9.8403 0003339  70.2951 170.1123  1.00270338 32034
QZS-4 (MICHIBIKI-4)     
1 42965U 17062A   26190.74072012 -.00000315  00000+0  00000+0 0  9991
2 42965  40.0954 343.1995 0747415 268.4439  81.4735  1.00291716 32020
SES-11 (ECHOSTAR 105)   
1 42967U 17063A   26191.62736958 -.00000080  00000+0  00000+0 0  9997
2 42967   0.0479 287.5000 0002731 198.0221 283.9358  1.00273025 31954
KOREASAT 5A             
1 42984U 17067A   26191.56016537 -.00000348  00000+0  00000+0 0  9994
2 42984   0.0103  34.9759 0000858  82.9650 125.3457  1.00270065 31766
ALCOMSAT 1              
1 43039U 17078A   26191.49048675 -.00000176  00000+0  00000+0 0  9997
2 43039   0.0334  88.8998 0002168  24.8628 326.4393  1.00271293 31524
SBIRS GEO-3 (USA 282)   
1 43162U 18009A   26191.53537075  .00000136  00000+0  00000+0 0  9996
2 43162   2.2005  13.1494 0001778  97.2624 211.3835  1.00272019 31078
AL YAH 3                
1 43174U 18012A   26191.42033532 -.00000147  00000+0  00000+0 0  9993
2 43174   1.6088  82.8286 0003544  26.8591 309.8714  1.00271266 31073
SES-14                  
1 43175U 18012B   26191.48598006 -.00000268  00000+0  00000+0 0  9996
2 43175   0.0127  24.1585 0000862  93.2265 298.4725  1.00271131  7257
GOES 17                 
1 43226U 18022A   26191.54915082 -.00000174  00000+0  00000+0 0  9994
2 43226   0.9939  85.3295 0000597  79.1020 232.2385  1.00270932 30654
HISPASAT 30W-6          
1 43228U 18023A   26191.20455014 -.00000205  00000+0  00000+0 0  9999
2 43228   0.0407  45.9676 0005346  41.1605 244.6618  1.00273947 30630
SUPERBIRD-B3            
1 43271U 18033A   26191.61989196 -.00000083  00000+0  00000+0 0  9990
2 43271   0.0129 320.6946 0001154 183.6047 169.4116  1.00270937 30292
HYLAS 4                 
1 43272U 18033B   26191.20385681 -.00000223  00000+0  00000+0 0  9991
2 43272   0.0130 315.8388 0000817 194.8332 177.3455  1.00270861 30297
IRNSS-1I                
1 43286U 18035A   26187.83739038  .00000079  00000+0  00000+0 0  9999
2 43286  28.7973  73.8917 0018087 180.4002  27.0525  1.00279237 30279
USA 283                 
1 43339U 18036A   26188.52802153 -.00000302  00000+0  00000+0 0  9995
2 43339   0.0144 201.6353 0000938   5.6408  42.3965  1.00268378 25490
COSMOS 2526             
1 43432U 18037A   26190.59425925 -.00000334  00000+0  00000+0 0  9993
2 43432   0.0315  92.7031 0001344 101.5058  75.2973  1.00247115 30187
APSTAR-6C               
1 43450U 18041A   26190.80924505 -.00000305  00000+0  00000+0 0  9998
2 43450   0.0263 338.0319 0000499 315.6172  59.4350  1.00271071 30034
BANGABANDHUSAT-1        
1 43463U 18044A   26191.64587926 -.00000353  00000+0  00000+0 0  9993
2 43463   0.0161  78.4642 0001674  42.3552 159.3537  1.00272489 29940
SES-12                  
1 43488U 18049A   26191.64466616 -.00000260  00000+0  00000+0 0  9994
2 43488   0.0109   3.5743 0000825 259.5870 352.4882  1.00271965 29657
FENGYUN 2H              
1 43491U 18050A   26191.58256090 -.00000121  00000+0  00000+0 0  9992
2 43491   3.0876  78.8057 0002198 129.9085   8.7125  1.00267747 29677
BEIDOU-2 IGSO-7         
1 43539U 18057A   26182.89122331 -.00000033  00000+0  00000+0 0  9998
2 43539  55.1981 162.9292 0104946 237.8611 308.6338  1.00246939 29273
TELSTAR 19V             
1 43562U 18059A   26191.66666667 -.00000271  00000+0  00000+0 0  9990
2 43562   0.0100 255.2404 0002648 229.7227 340.6347  1.00271672 29381
TELKOM 4 (MERAH PUTIH)  
1 43587U 18064A   26190.76016994 -.00000331  00000+0  00000+0 0  9992
2 43587   0.0179  55.8846 0001650  93.8853 159.5730  1.00269125 29108
TELSTAR 18V             
1 43611U 18069A   26191.28447437 -.00000283  00000+0  00000+0 0  9999
2 43611   0.0132 332.6810 0001754 143.6790  52.2638  1.00269704 28873
AZERSPACE 2 (IS-38)     
1 43632U 18074A   26191.57584428  .00000000  00000+0  00000+0 0  9998
2 43632   0.0262  31.9142 0001204  92.5801  56.4227  1.00270567 28680
HORIZONS-3E             
1 43633U 18074B   26190.81617841 -.00000018  00000+0  00000+0 0  9991
2 43633   0.0363 213.3135 0000781  67.3154 109.9513  1.00272318 28566
AEHF-4 (USA 288)        
1 43651U 18079A   26191.55357084 -.00000266  00000+0  00000+0 0  9993
2 43651   1.4378   5.8794 0058564 354.2748  59.9563  1.00277986 28533
