OBJECT_NAME,OBJECT_ID,EPOCH,MEAN_MOTION,ECCENTRICITY,INCLINATION,RA_OF_ASC_NODE,ARG_OF_PERICENTER,MEAN_ANOMALY,EPHEMERIS_TYPE,CLASSIFICATION_TYPE,NORAD_CAT_ID,ELEMENT_SET_NO,REV_AT_EPOCH,BSTAR,MEAN_MOTION_DOT,MEAN_MOTION_DDOT
TDRS 13,2017-047A,2026-07-10T13:33:06.990336,1.00271540,.00147842,3.4578,3.2860,111.1144,5.9600,0,U,42915,999,3258,0,-.92E-6,0
QZS-3 (MICHIBIKI-3),2017-048A,2026-07-10T14:12:29.366784,1.00274471,.000252,0.0731,218.4909,265.4991,144.6531,0,U,42917,999,3249,0,-.338E-5,0
AMAZONAS 5,2017-053A,2026-07-09T13:21:48.296736,1.00271348,.00011663,0.0333,322.5996,111.8422,352.5077,0,U,42934,999,3226,0,-.27E-5,0
ASIASAT 9,2017-057A,2026-07-10T17:36:24.760224,1.00272077,.0002432,0.0164,37.0365,60.4497,217.3698,0,U,42942,999,3209,0,-.351E-5,0
INTELSAT 37E (IS-37E),2017-059A,2026-07-10T10:05:54.412224,1.00270770,.00025238,0.0177,47.3723,69.5596,304.8910,0,U,42950,999,3229,0,-.131E-5,0
BSAT-4A,2017-059B,2026-07-10T14:07:37.333920,1.00270338,.00033391,0.0332,9.8403,70.2951,170.1123,0,U,42951,999,3203,0,-.34E-5,0
QZS-4 (MICHIBIKI-4),2017-062A,2026-07-09T17:46:38.218368,1.00291716,.07474153,40.0954,343.1995,268.4439,81.4735,0,U,42965,999,3202,0,-.315E-5,0
SES-11 (ECHOSTAR 105),2017-063A,2026-07-10T15:03:24.731712,1.00273025,.00027317,0.0479,287.5000,198.0221,283.9358,0,U,42967,999,3195,0,-.8E-6,0
KOREASAT 5A,2017-067A,2026-07-10T13:26:38.287968,1.00270065,.00008589,0.0103,34.9759,82.9650,125.3457,0,U,42984,999,3176,0,-.348E-5,0
ALCOMSAT 1,2017-078A,2026-07-10T11:46:18.055200,1.00271293,.00021686,0.0334,88.8998,24.8628,326.4393,0,U,43039,999,3152,0,-.176E-5,0
SBIRS GEO-3 (USA 282),2018-009A,2026-07-10T12:50:56.032800,1.00272019,.00017783,2.2005,13.1494,97.2624,211.3835,0,U,43162,999,3107,0,.136E-5,0
AL YAH 3,2018-012A,2026-07-10T10:05:16.971648,1.00271266,.00035444,1.6088,82.8286,26.8591,309.8714,0,U,43174,999,3107,0,-.147E-5,0
SES-14,2018-012B,2026-07-10T11:39:48.677184,1.00271131,.00008625,0.0127,24.1585,93.2265,298.4725,0,U,43175,999,725,0,-.268E-5,0
GOES 17,2018-022A,2026-07-10T13:10:46.630848,1.00270932,.00005976,0.9939,85.3295,79.1020,232.2385,0,U,43226,999,3065,0,-.174E-5,0
HISPASAT 30W-6,2018-023A,2026-07-10T04:54:33.132096,1.00273947,.00053468,0.0407,45.9676,41.1605,244.6618,0,U,43228,999,3063,0,-.205E-5,0
SUPERBIRD-B3,2018-033A,2026-07-10T14:52:38.665344,1.00270937,.00011542,0.0129,320.6946,183.6047,169.4116,0,U,43271,999,3029,0,-.83E-6,0
HYLAS 4,2018-033B,2026-07-10T04:53:33.228384,1.00270861,.00008171,0.0130,315.8388,194.8332,177.3455,0,U,43272,999,3029,0,-.223E-5,0
IRNSS-1I,2018-035A,2026-07-06T20:05:50.528832,1.00279237,.00180874,28.7973,73.8917,180.4002,27.0525,0,U,43286,999,3027,0,.79E-6,0
USA 283,2018-036A,2026-07-07T12:40:21.060192,1.00268378,.0000938,0.0144,201.6353,5.6408,42.3965,0,U,43339,999,2549,0,-.302E-5,0
COSMOS 2526,2018-037A,2026-07-09T14:15:43.999200,1.00247115,.00013444,0.0315,92.7031,101.5058,75.2973,0,U,43432,999,3018,0,-.334E-5,0
APSTAR-6C,2018-041A,2026-07-09T19:25:18.772320,1.00271071,.0000499,0.0263,338.0319,315.6172,59.4350,0,U,43450,999,3003,0,-.305E-5,0
BANGABANDHUSAT-1,2018-044A,2026-07-10T15:30:03.968064,1.00272489,.00016742,0.0161,78.4642,42.3552,159.3537,0,U,43463,999,2994,0,-.353E-5,0
SES-12,2018-049A,2026-07-10T15:28:19.156224,1.00271965,.00008257,0.0109,3.5743,259.5870,352.4882,0,U,43488,999,2965,0,-.26E-5,0
FENGYUN 2H,2018-050A,2026-07-10T13:58:53.261760,1.00267747,.00021986,3.0876,78.8057,129.9085,8.7125,0,U,43491,999,2967,0,-.121E-5,0
BEIDOU-2 IGSO-7,2018-057A,2026-07-01T21:23:21.693984,1.00246939,.01049468,55.1981,162.9292,237.8611,308.6338,0,U,43539,999,2927,0,-.33E-6,0
TELSTAR 19V,2018-059A,2026-07-10T16:00:00.000288,1.00271672,.00026484,0.0100,255.2404,229.7227,340.6347,0,U,43562,999,2938,0,-.271E-5,0
TELKOM 4 (MERAH PUTIH),2018-064A,2026-07-09T18:14:38.682816,1.00269125,.00016504,0.0179,55.8846,93.8853,159.5730,0,U,43587,999,2910,0,-.331E-5,0
TELSTAR 18V,2018-069A,2026-07-10T06:49:38.585568,1.00269704,.00017545,0.0132,332.6810,143.6790,52.2638,0,U,43611,999,2887,0,-.283E-5,0
AZERSPACE 2 (IS-38),2018-074A,2026-07-10T13:49:12.945792,1.00270567,.00012048,0.0262,31.9142,92.5801,56.4227,0,U,43632,999,2868,0,0,0
HORIZONS-3E,2018-074B,2026-07-09T19:35:17.814624,1.00272318,.00007811,0.0363,213.3135,67.3154,109.9513,0,U,43633,999,2856,0,-.18E-6,0
AEHF-4 (USA 288),2018-079A,2026-07-10T13:17:08.520576,1.00277986,.00585645,1.4378,5.8794,354.2748,59.9563,0,U,43651,999,2853,0,-.266E-5,0
